{"type": "FeatureCollection", "features": [ {"type": "Feature", "properties": {"norad_id": 40803, "name": "COSMOS 2251 DEB", "group": "cosmos-2251-debris", "lat": -21.7035915659273, "lon": 65.03891384602873, "alt_km": 708.4669944635489, "timestamp": "2025-12-02T07:10:09.514817+00:00", "meta": {"OBJECT_NAME": "COSMOS 2251 DEB", "OBJECT_ID": "1993-036BWG", "EPOCH": "2025-11-28T13:57:57.324672", "MEAN_MOTION": 14.51758448, "ECCENTRICITY": 0.00344541, "INCLINATION": 74.0129, "RA_OF_ASC_NODE": 78.5975, "ARG_OF_PERICENTER": 297.2945, "MEAN_ANOMALY": 62.4709, "EPHEMERIS_TYPE": 0, "CLASSIFICATION_TYPE": "U", "NORAD_CAT_ID": 40803, "ELEMENT_SET_NO": 999, "REV_AT_EPOCH": 58547, "BSTAR": 0.00037309243, "MEAN_MOTION_DOT": 1.482e-05, "MEAN_MOTION_DDOT": 0}, "tle": {"line1": "1 40803U 93036BWG 25332.58191348  .00001482  00000+0  37309-3 0  9999", "line2": "2 40803  74.0129  78.5975 0034454 297.2945  62.4709 14.51758448585473"}}, "geometry": {"type": "Point", "coordinates": [65.03891384602873, -21.7035915659273]}}, {"type": "Feature", "properties": {"norad_id": 40808, "name": "COSMOS 2251 DEB", "group": "cosmos-2251-debris", "lat": 27.601290928328616, "lon": 174.2263700387976, "alt_km": 675.9047268126806, "timestamp": "2025-12-02T07:10:09.514828+00:00", "meta": {"OBJECT_NAME": "COSMOS 2251 DEB", "OBJECT_ID": "1993-036BWM", "EPOCH": "2025-11-30T20:57:20.178144", "MEAN_MOTION": 14.67148693, "ECCENTRICITY": 0.00103903, "INCLINATION": 74.0423, "RA_OF_ASC_NODE": 168.372, "ARG_OF_PERICENTER": 205.6153, "MEAN_ANOMALY": 216.876, "EPHEMERIS_TYPE": 0, "CLASSIFICATION_TYPE": "U", "NORAD_CAT_ID": 40808, "ELEMENT_SET_NO": 999, "REV_AT_EPOCH": 63445, "BSTAR": 0.0014135109, "MEAN_MOTION_DOT": 7.933e-05, "MEAN_MOTION_DDOT": 0}, "tle": {"line1": "1 40808U 93036BWM 25334.87315021  .00007933  00000+0  14135-2 0  9992", "line2": "2 40808  74.0423 168.3720 0010390 205.6153 216.8760 14.67148693634455"}}, "geometry": {"type": "Point", "coordinates": [174.2263700387976, 27.601290928328616]}}, {"type": "Feature", "properties": {"norad_id": 40810, "name": "COSMOS 2251 DEB", "group": "cosmos-2251-debris", "lat": -73.9035074464314, "lon": 11.860970024274387, "alt_km": 692.5730644397672, "timestamp": "2025-12-02T07:10:09.514838+00:00", "meta": {"OBJECT_NAME": "COSMOS 2251 DEB", "OBJECT_ID": "1993-036BWP", "EPOCH": "2025-12-01T01:56:30.133248", "MEAN_MOTION": 14.58576089, "ECCENTRICITY": 0.00189799, "INCLINATION": 74.0354, "RA_OF_ASC_NODE": 96.9349, "ARG_OF_PERICENTER": 249.1387, "MEAN_ANOMALY": 110.7745, "EPHEMERIS_TYPE": 0, "CLASSIFICATION_TYPE": "U", "NORAD_CAT_ID": 40810, "ELEMENT_SET_NO": 999, "REV_AT_EPOCH": 61513, "BSTAR": 0.00095402186, "MEAN_MOTION_DOT": 4.422e-05, "MEAN_MOTION_DDOT": 0}, "tle": {"line1": "1 40810U 93036BWP 25335.08090432  .00004422  00000+0  95402-3 0  9992", "line2": "2 40810  74.0354  96.9349 0018979 249.1387 110.7745 14.58576089615130"}}, "geometry": {"type": "Point", "coordinates": [11.860970024274387, -73.9035074464314]}}, {"type": "Feature", "properties": {"norad_id": 46271, "name": "COSMOS 2251 DEB", "group": "cosmos-2251-debris", "lat": 59.29956606547737, "lon": 126.66446211862682, "alt_km": 742.7602548882005, "timestamp": "2025-12-02T07:10:09.514848+00:00", "meta": {"OBJECT_NAME": "COSMOS 2251 DEB", "OBJECT_ID": "1993-036BWT", "EPOCH": "2025-11-20T03:43:01.521408", "MEAN_MOTION": 14.51331868, "ECCENTRICITY": 0.00421547, "INCLINATION": 74.0444, "RA_OF_ASC_NODE": 120.6924, "ARG_OF_PERICENTER": 247.0658, "MEAN_ANOMALY": 112.6052, "EPHEMERIS_TYPE": 0, "CLASSIFICATION_TYPE": "U", "NORAD_CAT_ID": 46271, "ELEMENT_SET_NO": 999, "REV_AT_EPOCH": 84314, "BSTAR": 0.00037245006, "MEAN_MOTION_DOT": 1.472e-05, "MEAN_MOTION_DDOT": 0}, "tle": {"line1": "1 46271U 93036BWT 25324.15487872  .00001472  00000+0  37245-3 0  9996", "line2": "2 46271  74.0444 120.6924 0042154 247.0658 112.6052 14.51331868843144"}}, "geometry": {"type": "Point", "coordinates": [126.66446211862682, 59.29956606547737]}}, {"type": "Feature", "properties": {"norad_id": 46430, "name": "COSMOS 2251 DEB", "group": "cosmos-2251-debris", "lat": 40.782736057689306, "lon": -178.26602545469086, "alt_km": 787.9635910337965, "timestamp": "2025-12-02T07:10:09.514858+00:00", "meta": {"OBJECT_NAME": "COSMOS 2251 DEB", "OBJECT_ID": "1993-036BWU", "EPOCH": "2025-11-27T20:37:49.076256", "MEAN_MOTION": 14.50926548, "ECCENTRICITY": 0.01032827, "INCLINATION": 73.9144, "RA_OF_ASC_NODE": 24.5566, "ARG_OF_PERICENTER": 307.3694, "MEAN_ANOMALY": 51.8093, "EPHEMERIS_TYPE": 0, "CLASSIFICATION_TYPE": "U", "NORAD_CAT_ID": 46430, "ELEMENT_SET_NO": 999, "REV_AT_EPOCH": 79467, "BSTAR": 0.0020948934, "MEAN_MOTION_DOT": 8.844e-05, "MEAN_MOTION_DDOT": 0}, "tle": {"line1": "1 46430U 93036BWU 25331.85959579  .00008844  00000+0  20949-2 0  9998", "line2": "2 46430  73.9144  24.5566 0103282 307.3694  51.8093 14.50926548794676"}}, "geometry": {"type": "Point", "coordinates": [-178.26602545469086, 40.782736057689306]}}, {"type": "Feature", "properties": {"norad_id": 46432, "name": "COSMOS 2251 DEB", "group": "cosmos-2251-debris", "lat": -61.45123222966309, "lon": -20.121437917688414, "alt_km": 773.5710864828889, "timestamp": "2025-12-02T07:10:09.514867+00:00", "meta": {"OBJECT_NAME": "COSMOS 2251 DEB", "OBJECT_ID": "1993-036BWW", "EPOCH": "2025-11-27T18:14:15.472320", "MEAN_MOTION": 13.36590206, "ECCENTRICITY": 0.04736106, "INCLINATION": 73.8709, "RA_OF_ASC_NODE": 134.8972, "ARG_OF_PERICENTER": 254.8276, "MEAN_ANOMALY": 119.6249, "EPHEMERIS_TYPE": 0, "CLASSIFICATION_TYPE": "U", "NORAD_CAT_ID": 46432, "ELEMENT_SET_NO": 999, "REV_AT_EPOCH": 66766, "BSTAR": 0.00093134132, "MEAN_MOTION_DOT": 8.92e-06, "MEAN_MOTION_DDOT": 0}, "tle": {"line1": "1 46432U 93036BWW 25331.75990130  .00000892  00000+0  93134-3 0  9999", "line2": "2 46432  73.8709 134.8972 0473610 254.8276 119.6249 13.36590206667662"}}, "geometry": {"type": "Point", "coordinates": [-20.121437917688414, -61.45123222966309]}}, {"type": "Feature", "properties": {"norad_id": 47045, "name": "COSMOS 2251 DEB", "group": "cosmos-2251-debris", "lat": 46.99262363565682, "lon": -173.75645548534325, "alt_km": 760.7660281055387, "timestamp": "2025-12-02T07:10:09.514915+00:00", "meta": {"OBJECT_NAME": "COSMOS 2251 DEB", "OBJECT_ID": "1993-036BWZ", "EPOCH": "2025-11-29T08:01:04.631232", "MEAN_MOTION": 14.3888848, "ECCENTRICITY": 0.00299793, "INCLINATION": 74.0568, "RA_OF_ASC_NODE": 173.8561, "ARG_OF_PERICENTER": 317.2901, "MEAN_ANOMALY": 221.317, "EPHEMERIS_TYPE": 0, "CLASSIFICATION_TYPE": "U", "NORAD_CAT_ID": 47045, "ELEMENT_SET_NO": 999, "REV_AT_EPOCH": 7612, "BSTAR": 7.6430524e-05, "MEAN_MOTION_DOT": 2.1e-06, "MEAN_MOTION_DDOT": 0}, "tle": {"line1": "1 47045U 93036BWZ 25333.33408138  .00000210  00000+0  76431-4 0  9994", "line2": "2 47045  74.0568 173.8561 0029979 317.2901 221.3170 14.38888480 76126"}}, "geometry": {"type": "Point", "coordinates": [-173.75645548534325, 46.99262363565682]}}, {"type": "Feature", "properties": {"norad_id": 47048, "name": "COSMOS 2251 DEB", "group": "cosmos-2251-debris", "lat": -14.740919704626089, "lon": 163.2794969422783, "alt_km": 636.9616926740791, "timestamp": "2025-12-02T07:10:09.514927+00:00", "meta": {"OBJECT_NAME": "COSMOS 2251 DEB", "OBJECT_ID": "1993-036BXC", "EPOCH": "2025-11-30T18:42:56.797920", "MEAN_MOTION": 14.52124496, "ECCENTRICITY": 0.01339598, "INCLINATION": 73.9788, "RA_OF_ASC_NODE": 341.8156, "ARG_OF_PERICENTER": 172.9598, "MEAN_ANOMALY": 4.5515, "EPHEMERIS_TYPE": 0, "CLASSIFICATION_TYPE": "U", "NORAD_CAT_ID": 47048, "ELEMENT_SET_NO": 999, "REV_AT_EPOCH": 59516, "BSTAR": 0.0010173853, "MEAN_MOTION_DOT": 4.606e-05, "MEAN_MOTION_DDOT": 0}, "tle": {"line1": "1 47048U 93036BXC 25334.77982405  .00004606  00000+0  10174-2 0  9993", "line2": "2 47048  73.9788 341.8156 0133959 172.9598   4.5515 14.52124496595160"}}, "geometry": {"type": "Point", "coordinates": [163.2794969422783, -14.740919704626089]}}, {"type": "Feature", "properties": {"norad_id": 47051, "name": "COSMOS 2251 DEB", "group": "cosmos-2251-debris", "lat": 58.99084287472075, "lon": -7.646932975791814, "alt_km": 1240.778607435749, "timestamp": "2025-12-02T07:10:09.514937+00:00", "meta": {"OBJECT_NAME": "COSMOS 2251 DEB", "OBJECT_ID": "1993-036BXF", "EPOCH": "2025-11-30T21:16:46.923744", "MEAN_MOTION": 13.67055603, "ECCENTRICITY": 0.03412724, "INCLINATION": 74.1034, "RA_OF_ASC_NODE": 202.9595, "ARG_OF_PERICENTER": 319.0702, "MEAN_ANOMALY": 49.7973, "EPHEMERIS_TYPE": 0, "CLASSIFICATION_TYPE": "U", "NORAD_CAT_ID": 47051, "ELEMENT_SET_NO": 999, "REV_AT_EPOCH": 59776, "BSTAR": 0.0014437039, "MEAN_MOTION_DOT": 1.783e-05, "MEAN_MOTION_DDOT": 0}, "tle": {"line1": "1 47051U 93036BXF 25334.88665421  .00001783  00000+0  14437-2 0  9994", "line2": "2 47051  74.1034 202.9595 0341272 319.0702  49.7973 13.67055603597760"}}, "geometry": {"type": "Point", "coordinates": [-7.646932975791814, 58.99084287472075]}}, {"type": "Feature", "properties": {"norad_id": 47052, "name": "COSMOS 2251 DEB", "group": "cosmos-2251-debris", "lat": 47.018707882316725, "lon": 161.59342338811416, "alt_km": 744.377860196575, "timestamp": "2025-12-02T07:10:09.514947+00:00", "meta": {"OBJECT_NAME": "COSMOS 2251 DEB", "OBJECT_ID": "1993-036BXG", "EPOCH": "2025-11-29T08:23:30.956640", "MEAN_MOTION": 14.35450474, "ECCENTRICITY": 0.00577024, "INCLINATION": 74.0487, "RA_OF_ASC_NODE": 4.8695, "ARG_OF_PERICENTER": 82.9608, "MEAN_ANOMALY": 293.3927, "EPHEMERIS_TYPE": 0, "CLASSIFICATION_TYPE": "U", "NORAD_CAT_ID": 47052, "ELEMENT_SET_NO": 999, "REV_AT_EPOCH": 61597, "BSTAR": 0.00022809202, "MEAN_MOTION_DOT": 6.42e-06, "MEAN_MOTION_DDOT": 0}, "tle": {"line1": "1 47052U 93036BXG 25333.34966385  .00000642  00000+0  22809-3 0  9994", "line2": "2 47052  74.0487   4.8695 0057702  82.9608 293.3927 14.35450474615976"}}, "geometry": {"type": "Point", "coordinates": [161.59342338811416, 47.018707882316725]}}]}